[{"OBJECT_NAME":"ONEWEB-0060","OBJECT_ID":"2020-020AH","EPOCH":"2026-03-24T02:26:59.878752","MEAN_MOTION":13.11414372,"ECCENTRICITY":0.00020265,"INCLINATION":87.8887,"RA_OF_ASC_NODE":37.9795,"ARG_OF_PERICENTER":111.3248,"MEAN_ANOMALY":248.8097,"EPHEMERIS_TYPE":0,"CLASSIFICATION_TYPE":"U","NORAD_CAT_ID":45455,"ELEMENT_SET_NO":999,"REV_AT_EPOCH":29139,"BSTAR":0.00098648506,"MEAN_MOTION_DOT":3.62e-6,"MEAN_MOTION_DDOT":0},{"OBJECT_NAME":"ONEWEB-0086","OBJECT_ID":"2020-020AJ","EPOCH":"2026-03-24T07:26:05.583840","MEAN_MOTION":13.11419353,"ECCENTRICITY":0.00024329,"INCLINATION":87.89,"RA_OF_ASC_NODE":37.9271,"ARG_OF_PERICENTER":94.6172,"MEAN_ANOMALY":265.5234,"EPHEMERIS_TYPE":0,"CLASSIFICATION_TYPE":"U","NORAD_CAT_ID":45456,"ELEMENT_SET_NO":999,"REV_AT_EPOCH":29148,"BSTAR":0.00082574773,"MEAN_MOTION_DOT":3.05e-6,"MEAN_MOTION_DDOT":0},{"OBJECT_NAME":"ONEWEB-0088","OBJECT_ID":"2020-020AK","EPOCH":"2026-03-23T19:55:07.275648","MEAN_MOTION":13.11411828,"ECCENTRICITY":0.00015691,"INCLINATION":87.8907,"RA_OF_ASC_NODE":37.9881,"ARG_OF_PERICENTER":74.8131,"MEAN_ANOMALY":285.317,"EPHEMERIS_TYPE":0,"CLASSIFICATION_TYPE":"U","NORAD_CAT_ID":45457,"ELEMENT_SET_NO":999,"REV_AT_EPOCH":29135,"BSTAR":-0.0012982195,"MEAN_MOTION_DOT":-4.47e-6,"MEAN_MOTION_DDOT":0},{"OBJECT_NAME":"ONEWEB-0102","OBJECT_ID":"2020-100A","EPOCH":"2026-03-24T04:56:17.221632","MEAN_MOTION":13.12445001,"ECCENTRICITY":0.00019843,"INCLINATION":87.9005,"RA_OF_ASC_NODE":7.5512,"ARG_OF_PERICENTER":83.5245,"MEAN_ANOMALY":276.611,"EPHEMERIS_TYPE":0,"CLASSIFICATION_TYPE":"U","NORAD_CAT_ID":47258,"ELEMENT_SET_NO":999,"REV_AT_EPOCH":25358,"BSTAR":-0.00086344759,"MEAN_MOTION_DOT":-2.98e-6,"MEAN_MOTION_DDOT":0},{"OBJECT_NAME":"ONEWEB-0109","OBJECT_ID":"2020-100B","EPOCH":"2026-03-24T06:58:16.990752","MEAN_MOTION":13.12444698,"ECCENTRICITY":0.00019506,"INCLINATION":87.9017,"RA_OF_ASC_NODE":7.5101,"ARG_OF_PERICENTER":76.8305,"MEAN_ANOMALY":283.3041,"EPHEMERIS_TYPE":0,"CLASSIFICATION_TYPE":"U","NORAD_CAT_ID":47259,"ELEMENT_SET_NO":999,"REV_AT_EPOCH":25342,"BSTAR":-0.00028424436,"MEAN_MOTION_DOT":-9.0e-7,"MEAN_MOTION_DDOT":0},{"OBJECT_NAME":"ONEWEB-0110","OBJECT_ID":"2020-100C","EPOCH":"2026-03-24T03:57:44.714304","MEAN_MOTION":13.12441251,"ECCENTRICITY":0.00019532,"INCLINATION":87.9014,"RA_OF_ASC_NODE":7.5198,"ARG_OF_PERICENTER":85.0842,"MEAN_ANOMALY":275.051,"EPHEMERIS_TYPE":0,"CLASSIFICATION_TYPE":"U","NORAD_CAT_ID":47260,"ELEMENT_SET_NO":999,"REV_AT_EPOCH":25357,"BSTAR":0.0014154395,"MEAN_MOTION_DOT":5.22e-6,"MEAN_MOTION_DDOT":0},{"OBJECT_NAME":"ONEWEB-0111","OBJECT_ID":"2020-100D","EPOCH":"2026-03-24T04:41:39.070176","MEAN_MOTION":13.12443782,"ECCENTRICITY":0.0001752,"INCLINATION":87.9015,"RA_OF_ASC_NODE":7.5319,"ARG_OF_PERICENTER":82.2555,"MEAN_ANOMALY":277.8773,"EPHEMERIS_TYPE":0,"CLASSIFICATION_TYPE":"U","NORAD_CAT_ID":47261,"ELEMENT_SET_NO":999,"REV_AT_EPOCH":25341,"BSTAR":-0.0010687565,"MEAN_MOTION_DOT":-3.72e-6,"MEAN_MOTION_DDOT":0},{"OBJECT_NAME":"ONEWEB-0114","OBJECT_ID":"2020-100E","EPOCH":"2026-03-24T07:15:21.519360","MEAN_MOTION":13.12444786,"ECCENTRICITY":0.00018989,"INCLINATION":87.9019,"RA_OF_ASC_NODE":7.5066,"ARG_OF_PERICENTER":70.471,"MEAN_ANOMALY":289.6623,"EPHEMERIS_TYPE":0,"CLASSIFICATION_TYPE":"U","NORAD_CAT_ID":47262,"ELEMENT_SET_NO":999,"REV_AT_EPOCH":25338,"BSTAR":0.00067439861,"MEAN_MOTION_DOT":2.55e-6,"MEAN_MOTION_DDOT":0},{"OBJECT_NAME":"ONEWEB-0117","OBJECT_ID":"2020-100F","EPOCH":"2026-03-24T07:03:08.969184","MEAN_MOTION":13.12445148,"ECCENTRICITY":0.00018482,"INCLINATION":87.9016,"RA_OF_ASC_NODE":7.5022,"ARG_OF_PERICENTER":79.111,"MEAN_ANOMALY":281.0227,"EPHEMERIS_TYPE":0,"CLASSIFICATION_TYPE":"U","NORAD_CAT_ID":47263,"ELEMENT_SET_NO":999,"REV_AT_EPOCH":25339,"BSTAR":-1.946699e-6,"MEAN_MOTION_DOT":1.2e-7,"MEAN_MOTION_DDOT":0},{"OBJECT_NAME":"ONEWEB-0118","OBJECT_ID":"2020-100G","EPOCH":"2026-03-24T04:12:23.352192","MEAN_MOTION":13.12442402,"ECCENTRICITY":0.00017121,"INCLINATION":87.9014,"RA_OF_ASC_NODE":7.5283,"ARG_OF_PERICENTER":67.612,"MEAN_ANOMALY":292.5189,"EPHEMERIS_TYPE":0,"CLASSIFICATION_TYPE":"U","NORAD_CAT_ID":47264,"ELEMENT_SET_NO":999,"REV_AT_EPOCH":25357,"BSTAR":0.00067500492,"MEAN_MOTION_DOT":2.56e-6,"MEAN_MOTION_DDOT":0},{"OBJECT_NAME":"ONEWEB-0119","OBJECT_ID":"2020-100H","EPOCH":"2026-03-24T04:48:58.365792","MEAN_MOTION":13.12444203,"ECCENTRICITY":0.00018183,"INCLINATION":87.9005,"RA_OF_ASC_NODE":7.5474,"ARG_OF_PERICENTER":77.7637,"MEAN_ANOMALY":282.3695,"EPHEMERIS_TYPE":0,"CLASSIFICATION_TYPE":"U","NORAD_CAT_ID":47265,"ELEMENT_SET_NO":999,"REV_AT_EPOCH":25355,"BSTAR":-0.0010360728,"MEAN_MOTION_DOT":-3.6e-6,"MEAN_MOTION_DDOT":0},{"OBJECT_NAME":"ONEWEB-0120","OBJECT_ID":"2020-100J","EPOCH":"2026-03-24T07:13:06.926304","MEAN_MOTION":13.12445011,"ECCENTRICITY":0.00018645,"INCLINATION":87.9006,"RA_OF_ASC_NODE":7.5283,"ARG_OF_PERICENTER":75.7572,"MEAN_ANOMALY":284.3763,"EPHEMERIS_TYPE":0,"CLASSIFICATION_TYPE":"U","NORAD_CAT_ID":47266,"ELEMENT_SET_NO":999,"REV_AT_EPOCH":25359,"BSTAR":0.00073696862,"MEAN_MOTION_DOT":2.78e-6,"MEAN_MOTION_DDOT":0},{"OBJECT_NAME":"ONEWEB-0121","OBJECT_ID":"2020-100K","EPOCH":"2026-03-24T05:06:02.991168","MEAN_MOTION":13.12444965,"ECCENTRICITY":0.00018607,"INCLINATION":87.9016,"RA_OF_ASC_NODE":7.5236,"ARG_OF_PERICENTER":85.0561,"MEAN_ANOMALY":275.078,"EPHEMERIS_TYPE":0,"CLASSIFICATION_TYPE":"U","NORAD_CAT_ID":47267,"ELEMENT_SET_NO":999,"REV_AT_EPOCH":25349,"BSTAR":-0.00036663869,"MEAN_MOTION_DOT":-1.19e-6,"MEAN_MOTION_DDOT":0},{"OBJECT_NAME":"ONEWEB-0122","OBJECT_ID":"2020-100L","EPOCH":"2026-03-24T04:57:30.516480","MEAN_MOTION":13.12443385,"ECCENTRICITY":0.00019784,"INCLINATION":87.9016,"RA_OF_ASC_NODE":7.5274,"ARG_OF_PERICENTER":78.5856,"MEAN_ANOMALY":281.5495,"EPHEMERIS_TYPE":0,"CLASSIFICATION_TYPE":"U","NORAD_CAT_ID":47268,"ELEMENT_SET_NO":999,"REV_AT_EPOCH":25340,"BSTAR":-0.00087559561,"MEAN_MOTION_DOT":-3.02e-6,"MEAN_MOTION_DDOT":0},{"OBJECT_NAME":"ONEWEB-0123","OBJECT_ID":"2020-100M","EPOCH":"2026-03-24T04:51:24.452640","MEAN_MOTION":13.1244456,"ECCENTRICITY":0.00017154,"INCLINATION":87.9006,"RA_OF_ASC_NODE":7.546,"ARG_OF_PERICENTER":75.7181,"MEAN_ANOMALY":284.4138,"EPHEMERIS_TYPE":0,"CLASSIFICATION_TYPE":"U","NORAD_CAT_ID":47269,"ELEMENT_SET_NO":999,"REV_AT_EPOCH":25354,"BSTAR":-0.00096485727,"MEAN_MOTION_DOT":-3.34e-6,"MEAN_MOTION_DDOT":0},{"OBJECT_NAME":"ONEWEB-0124","OBJECT_ID":"2020-100N","EPOCH":"2026-03-24T04:36:46.396224","MEAN_MOTION":13.12442942,"ECCENTRICITY":0.00016958,"INCLINATION":87.9005,"RA_OF_ASC_NODE":7.5522,"ARG_OF_PERICENTER":81.5379,"MEAN_ANOMALY":278.5941,"EPHEMERIS_TYPE":0,"CLASSIFICATION_TYPE":"U","NORAD_CAT_ID":47270,"ELEMENT_SET_NO":999,"REV_AT_EPOCH":25342,"BSTAR":-0.00096113529,"MEAN_MOTION_DOT":-3.33e-6,"MEAN_MOTION_DDOT":0},{"OBJECT_NAME":"ONEWEB-0125","OBJECT_ID":"2020-100P","EPOCH":"2026-03-24T04:05:03.746400","MEAN_MOTION":13.12440882,"ECCENTRICITY":0.00015056,"INCLINATION":87.9019,"RA_OF_ASC_NODE":7.5301,"ARG_OF_PERICENTER":80.9463,"MEAN_ANOMALY":279.1836,"EPHEMERIS_TYPE":0,"CLASSIFICATION_TYPE":"U","NORAD_CAT_ID":47271,"ELEMENT_SET_NO":999,"REV_AT_EPOCH":25348,"BSTAR":0.0010089755,"MEAN_MOTION_DOT":3.76e-6,"MEAN_MOTION_DDOT":0},{"OBJECT_NAME":"ONEWEB-0126","OBJECT_ID":"2020-100Q","EPOCH":"2026-03-24T04:34:32.044224","MEAN_MOTION":13.12443127,"ECCENTRICITY":0.00018858,"INCLINATION":87.9012,"RA_OF_ASC_NODE":7.5475,"ARG_OF_PERICENTER":74.8555,"MEAN_ANOMALY":285.2782,"EPHEMERIS_TYPE":0,"CLASSIFICATION_TYPE":"U","NORAD_CAT_ID":47272,"ELEMENT_SET_NO":999,"REV_AT_EPOCH":25355,"BSTAR":-0.00072504397,"MEAN_MOTION_DOT":-2.48e-6,"MEAN_MOTION_DDOT":0},{"OBJECT_NAME":"ONEWEB-0127","OBJECT_ID":"2020-100R","EPOCH":"2026-03-24T07:25:07.961088","MEAN_MOTION":13.12443695,"ECCENTRICITY":0.0001938,"INCLINATION":87.9003,"RA_OF_ASC_NODE":7.5269,"ARG_OF_PERICENTER":76.0195,"MEAN_ANOMALY":284.1149,"EPHEMERIS_TYPE":0,"CLASSIFICATION_TYPE":"U","NORAD_CAT_ID":47273,"ELEMENT_SET_NO":999,"REV_AT_EPOCH":25359,"BSTAR":0.0012708851,"MEAN_MOTION_DOT":4.7e-6,"MEAN_MOTION_DDOT":0},{"OBJECT_NAME":"ONEWEB-0128","OBJECT_ID":"2020-100S","EPOCH":"2026-03-24T04:17:15.620928","MEAN_MOTION":13.12443087,"ECCENTRICITY":0.00019956,"INCLINATION":87.9003,"RA_OF_ASC_NODE":7.5669,"ARG_OF_PERICENTER":87.5443,"MEAN_ANOMALY":272.5914,"EPHEMERIS_TYPE":0,"CLASSIFICATION_TYPE":"U","NORAD_CAT_ID":47274,"ELEMENT_SET_NO":999,"REV_AT_EPOCH":25359,"BSTAR":0.00028186739,"MEAN_MOTION_DOT":1.14e-6,"MEAN_MOTION_DDOT":0},{"OBJECT_NAME":"ONEWEB-0129","OBJECT_ID":"2020-100T","EPOCH":"2026-03-24T07:27:34.021152","MEAN_MOTION":13.12444102,"ECCENTRICITY":0.00027153,"INCLINATION":87.9016,"RA_OF_ASC_NODE":7.5056,"ARG_OF_PERICENTER":60.133,"MEAN_ANOMALY":300.0068,"EPHEMERIS_TYPE":0,"CLASSIFICATION_TYPE":"U","NORAD_CAT_ID":47275,"ELEMENT_SET_NO":999,"REV_AT_EPOCH":25354,"BSTAR":0.0011973369,"MEAN_MOTION_DOT":4.43e-6,"MEAN_MOTION_DDOT":0},{"OBJECT_NAME":"ONEWEB-0130","OBJECT_ID":"2020-100U","EPOCH":"2026-03-24T04:27:01.143360","MEAN_MOTION":13.12443084,"ECCENTRICITY":0.00019013,"INCLINATION":87.9016,"RA_OF_ASC_NODE":7.5248,"ARG_OF_PERICENTER":77.7812,"MEAN_ANOMALY":282.353,"EPHEMERIS_TYPE":0,"CLASSIFICATION_TYPE":"U","NORAD_CAT_ID":47276,"ELEMENT_SET_NO":999,"REV_AT_EPOCH":25349,"BSTAR":-0.00033455802,"MEAN_MOTION_DOT":-1.08e-6,"MEAN_MOTION_DDOT":0},{"OBJECT_NAME":"ONEWEB-0131","OBJECT_ID":"2020-100V","EPOCH":"2026-03-24T04:22:08.341536","MEAN_MOTION":13.12442373,"ECCENTRICITY":0.00018565,"INCLINATION":87.9004,"RA_OF_ASC_NODE":7.553,"ARG_OF_PERICENTER":78.8161,"MEAN_ANOMALY":281.3176,"EPHEMERIS_TYPE":0,"CLASSIFICATION_TYPE":"U","NORAD_CAT_ID":47277,"ELEMENT_SET_NO":999,"REV_AT_EPOCH":25353,"BSTAR":-0.00011410997,"MEAN_MOTION_DOT":-2.8e-7,"MEAN_MOTION_DDOT":0}]
